NORAD_CAT_ID,OBJECT_NAME,OBJECT_TYPE,EPOCH,MEAN_MOTION,ECCENTRICITY,INCLINATION,RA_OF_ASC_NODE,ARG_OF_PERICENTER,MEAN_ANOMALY,BSTAR,MEAN_MOTION_DOT,MEAN_MOTION_DDOT,TLE_LINE0,TLE_LINE1,TLE_LINE2,SEMIMAJOR_AXIS,PERIOD,APOGEE,PERIGEE,DECAYED
56476.0,STARLINK-5545,PAYLOAD,2024-08-02 20:21:13,14.98313682,0.0002978,70.0,156.6024,268.3452,91.7366,0.00020197,2.317e-05,0.0,0 STARLINK-5545,1 56476U 23064AE  24215.84807549  .00002317  00000-0  20197-3 0  9997,2 56476  70.0000 156.6024 0002978 268.3452  91.7366 14.98313682 68648,6950.243,96.108,574.178,570.039,0.0
56476.0,STARLINK-5545,PAYLOAD,2024-08-02 21:57:21,14.98315433,0.0002958,70.0,156.4347,268.6965,91.3855,0.00013523,1.52e-05,0.0,0 STARLINK-5545,1 56476U 23064AE  24215.91483653  .00001520  00000-0  13523-3 0  9991,2 56476  70.0000 156.4347 0002958 268.6965  91.3855 14.98315433 68290,6950.238,96.108,574.159,570.047,0.0
56476.0,STARLINK-5545,PAYLOAD,2024-08-03 05:58:01,14.98325026,0.0002929,70.0001,155.5928,268.8315,91.2509,5.4653e-05,5.59e-06,0.0,0 STARLINK-5545,1 56476U 23064AE  24216.24863364  .00000559  00000-0  54653-4 0  9990,2 56476  70.0001 155.5928 0002929 268.8315  91.2509 14.98325026 68705,6950.208,96.107,574.109,570.038,0.0
56476.0,STARLINK-5545,PAYLOAD,2024-08-03 13:58:42,14.9832665,0.0002792,70.0005,154.7505,269.3958,90.6881,2.2413e-05,1.74e-06,0.0,0 STARLINK-5545,1 56476U 23064AE  24216.58243463  .00000174  00000-0  22413-4 0  9991,2 56476  70.0005 154.7505 0002792 269.3958  90.6881 14.98326650 68393,6950.203,96.107,574.009,570.128,0.0
56476.0,STARLINK-5545,PAYLOAD,2024-08-03 21:59:22,14.98335062,0.0003011,69.9998,153.9088,270.1124,89.969,3.1891e-05,2.88e-06,0.0,0 STARLINK-5545,1 56476U 23064AE  24216.91622840  .00000288  00000-0  31891-4 0  9994,2 56476  69.9998 153.9088 0003011 270.1124  89.9690 14.98335062 68440,6950.177,96.107,574.135,569.95,0.0
56476.0,STARLINK-5545,PAYLOAD,2024-08-04 04:23:53,14.98341906,0.0002879,70.0,153.2354,266.8836,93.1993,0.00010247,1.13e-05,0.0,0 STARLINK-5545,1 56476U 23064AE  24217.18326164  .00001130  00000-0  10247-3 0  9992,2 56476  70.0000 153.2354 0002879 266.8836  93.1993 14.98341906 68840,6950.156,96.106,574.022,570.02,0.0
56476.0,STARLINK-5545,PAYLOAD,2024-08-04 06:00:01,14.98343979,0.0002895,69.9999,153.0671,267.0691,93.0136,0.00012536,1.404e-05,0.0,0 STARLINK-5545,1 56476U 23064AE  24217.25001952  .00001404  00000-0  12536-3 0  9992,2 56476  69.9999 153.0671 0002895 267.0691  93.0136 14.98343979 68495,6950.15,96.106,574.027,570.003,0.0
56476.0,STARLINK-5545,PAYLOAD,2024-08-04 20:25:15,14.98328639,0.0002747,70.0003,151.5522,270.7663,89.3181,0.00015093,1.708e-05,0.0,0 STARLINK-5545,1 56476U 23064AE  24217.85086812  .00001708  00000-0  15093-3 0  9994,2 56476  70.0003 151.5522 0002747 270.7663  89.3181 14.98328639 68942,6950.197,96.107,573.971,570.153,0.0
56476.0,STARLINK-5545,PAYLOAD,2024-08-04 22:01:23,14.98329279,0.0002743,70.0004,151.3838,270.7941,89.2904,0.0001556,1.764e-05,0.0,0 STARLINK-5545,1 56476U 23064AE  24217.91762773  .00001764  00000-0  15560-3 0  9999,2 56476  70.0004 151.3838 0002743 270.7941  89.2904 14.98329279 68590,6950.195,96.107,573.967,570.154,0.0
56476.0,STARLINK-5545,PAYLOAD,2024-08-05 04:25:54,14.98338356,0.0002495,70.001,150.7129,263.6647,96.4228,0.00023303,2.689e-05,0.0,0 STARLINK-5545,1 56476U 23064AE  24218.18466015  .00002689  00000-0  23303-3 0  9990,2 56476  70.0010 150.7129 0002495 263.6647  96.4228 14.98338356 68990,6950.167,96.106,573.766,570.298,0.0
56476.0,STARLINK-5545,PAYLOAD,2024-08-05 12:26:35,14.98325366,0.0002842,70.0006,149.8691,268.4659,91.6174,5.2183e-05,5.3e-06,0.0,0 STARLINK-5545,1 56476U 23064AE  24218.51847066  .00000530  00000-0  52183-4 0  9998,2 56476  70.0006 149.8691 0002842 268.4659  91.6174 14.98325366 69041,6950.207,96.107,574.047,570.097,0.0
56476.0,STARLINK-5545,PAYLOAD,2024-08-05 22:03:25,14.9831211,0.0002637,70.0011,148.8656,264.6358,95.45,7.7943e-06,0.0,0.0,0 STARLINK-5545,1 56476U 23064AE  24218.91904461  .00000000  00000-0  77943-5 0  9999,2 56476  70.0011 148.8656 0002637 264.6358  95.4500 14.98312110 69108,6950.248,96.108,573.946,570.28,0.0
56476.0,STARLINK-5545,PAYLOAD,2024-08-06 12:28:37,14.98325256,0.0002721,70.0002,147.3457,262.5165,97.5685,-0.00012049,-1.53e-05,0.0,0 STARLINK-5545,1 56476U 23064AE  24219.51988107 -.00001530  00000-0 -12049-3 0  9990,2 56476  70.0002 147.3457 0002721 262.5165  97.5685 14.98325256 69199,6950.208,96.107,573.964,570.181,0.0
56476.0,STARLINK-5545,PAYLOAD,2024-08-06 22:05:25,14.98334926,0.0002884,69.9996,146.3347,261.1089,98.9743,1.0585e-05,3.3e-07,0.0,0 STARLINK-5545,1 56476U 23064AE  24219.92043329  .00000033  00000-0  10585-4 0  9992,2 56476  69.9996 146.3347 0002884 261.1089  98.9743 14.98334926 68895,6950.178,96.107,574.047,570.038,0.0
56476.0,STARLINK-5545,PAYLOAD,2024-08-07 02:53:49,14.98339023,0.0002922,69.9992,145.8284,266.6304,93.4521,0.00010667,1.18e-05,0.0,0 STARLINK-5545,1 56476U 23064AE  24220.12070882  .00001180  00000-0  10667-3 0  9994,2 56476  69.9992 145.8284 0002922 266.6304  93.4521 14.98339023 69289,6950.165,96.106,574.061,569.999,0.0
56476.0,STARLINK-5545,PAYLOAD,2024-08-07 20:31:18,14.98325903,0.000276,70.0003,143.9795,253.0909,106.9948,0.00038152,4.462e-05,0.0,0 STARLINK-5545,1 56476U 23064AE  24220.85507222  .00004462  00000-0  38152-3 0  9992,2 56476  70.0003 143.9795 0002760 253.0909 106.9948 14.98325903 69399,6950.206,96.107,573.989,570.152,0.0
56476.0,STARLINK-5545,PAYLOAD,2024-08-08 04:31:58,14.98332135,0.000248,70.0008,143.1361,258.5439,101.5441,0.00047709,5.604e-05,0.0,0 STARLINK-5545,1 56476U 23064AE  24221.18887039  .00005604  00000-0  47709-3 0  9993,2 56476  70.0008 143.1361 0002480 258.5439 101.5441 14.98332135 69082,6950.186,96.107,573.775,570.328,0.0
56476.0,STARLINK-5545,PAYLOAD,2024-08-08 20:33:19,14.98338905,0.0002549,70.0025,141.4574,264.0207,96.0661,0.00012588,1.41e-05,0.0,0 STARLINK-5545,1 56476U 23064AE  24221.85647074  .00001410  00000-0  12588-3 0  9998,2 56476  70.0025 141.4574 0002549 264.0207  96.0661 14.98338905 69543,6950.165,96.106,573.802,570.259,0.0
56476.0,STARLINK-5545,PAYLOAD,2024-08-08 22:09:27,14.98335716,0.0002804,70.0019,141.2895,259.4235,100.6608,0.00011621,1.294e-05,0.0,0 STARLINK-5545,1 56476U 23064AE  24221.92323172  .00001294  00000-0  11621-3 0  9993,2 56476  70.0019 141.2895 0002804 259.4235 100.6608 14.98335716 69194,6950.175,96.107,573.989,570.091,0.0
56476.0,STARLINK-5545,PAYLOAD,2024-08-09 04:33:58,14.98346852,0.0002827,69.9999,140.6125,263.623,96.4607,0.00014398,1.626e-05,0.0,0 STARLINK-5545,1 56476U 23064AE  24222.19026234  .00001626  00000-0  14398-3 0  9995,2 56476  69.9999 140.6125 0002827 263.6230  96.4607 14.98346852 69592,6950.141,96.106,573.971,570.041,0.0
56476.0,STARLINK-5545,PAYLOAD,2024-08-09 12:34:39,14.98338642,0.0002137,70.0027,139.7683,282.1341,77.9578,-2.5567e-06,-1.23e-06,0.0,0 STARLINK-5545,1 56476U 23064AE  24222.52407095 -.00000123  00000-0 -25567-5 0  9995,2 56476  70.0027 139.7683 0002137 282.1341  77.9578 14.98338642 69643,6950.166,96.106,573.516,570.546,0.0
56476.0,STARLINK-5545,PAYLOAD,2024-08-09 22:11:27,14.98337638,0.0002728,70.0,138.7584,263.5272,96.5577,-4.4807e-05,-6.28e-06,0.0,0 STARLINK-5545,1 56476U 23064AE  24222.92462869 -.00000628  00000-0 -44807-4 0  9996,2 56476  70.0000 138.7584 0002728 263.5272  96.5577 14.98337638 69342,6950.169,96.107,573.93,570.138,0.0
56476.0,STARLINK-5545,PAYLOAD,2024-08-10 04:36:00,14.98333784,0.0002313,70.0015,138.087,251.7477,108.3431,-2.6716e-05,-4.12e-06,0.0,0 STARLINK-5545,1 56476U 23064AE  24223.19166961 -.00000412  00000-0 -26716-4 0  9990,2 56476  70.0015 138.0870 0002313 251.7477 108.3431 14.98333784 69388,6950.181,96.107,573.654,570.439,0.0
56476.0,STARLINK-5545,PAYLOAD,2024-08-10 20:37:20,14.98351192,0.0002317,70.001,136.4054,255.1874,104.9029,-0.00019739,-2.449e-05,0.0,0 STARLINK-5545,1 56476U 23064AE  24223.85926077 -.00002449  00000-0 -19739-3 0  9993,2 56476  70.0010 136.4054 0002317 255.1874 104.9029 14.98351192 69841,6950.127,96.106,573.603,570.382,0.0
56476.0,STARLINK-5545,PAYLOAD,2024-08-10 22:13:28,14.98334675,0.0002472,70.0011,136.2371,253.3489,106.7399,0.00014959,1.693e-05,0.0,0 STARLINK-5545,1 56476U 23064AE  24223.92602384  .00001693  00000-0  14959-3 0  9990,2 56476  70.0011 136.2371 0002472 253.3489 106.7399 14.98334675 69494,6950.178,96.107,573.762,570.325,0.0
56476.0,STARLINK-5545,PAYLOAD,2024-08-11 11:02:32,14.98334888,0.0003009,70.0009,134.8887,273.0276,87.0538,-1.921e-05,-3.22e-06,0.0,0 STARLINK-5545,1 56476U 23064AE  24224.46010069 -.00000322  00000-0 -19210-4 0  9999,2 56476  70.0009 134.8887 0003009 273.0276  87.0538 14.98334888 69938,6950.178,96.107,574.134,569.951,0.0
56476.0,STARLINK-5545,PAYLOAD,2024-08-11 22:15:29,14.98328656,0.0002471,70.0013,133.7109,276.5696,83.5181,0.00010646,1.177e-05,0.0,0 STARLINK-5545,1 56476U 23064AE  24224.92742690  .00001177  00000-0  10646-3 0  9992,2 56476  70.0013 133.7109 0002471 276.5696  83.5181 14.98328656 69643,6950.197,96.107,573.779,570.345,0.0
56476.0,STARLINK-5545,PAYLOAD,2024-08-12 04:40:00,14.9834702,0.0002994,70.0013,133.0366,269.0873,90.9943,0.00039127,4.581e-05,0.0,0 STARLINK-5545,1 56476U 23064AE  24225.19445357  .00004581  00000-0  39127-3 0  9999,2 56476  70.0013 133.0366 0002994 269.0873  90.9943 14.98347020 70045,6950.14,96.106,574.086,569.924,0.0
56476.0,STARLINK-5545,PAYLOAD,2024-08-12 11:04:33,14.98347662,0.000273,70.0026,132.3624,278.0497,82.0353,0.00023728,2.741e-05,0.0,0 STARLINK-5545,1 56476U 23064AE  24225.46149368  .00002741  00000-0  23728-3 0  9998,2 56476  70.0026 132.3624 0002730 278.0497  82.0353 14.98347662 69720,6950.138,96.106,573.901,570.106,0.0
56476.0,STARLINK-5545,PAYLOAD,2024-08-12 22:17:29,14.98349499,0.0002361,70.0016,131.1833,264.5555,95.5335,0.0003675,4.297e-05,0.0,0 STARLINK-5545,1 56476U 23064AE  24225.92880967  .00004297  00000-0  36750-3 0  9993,2 56476  70.0016 131.1833 0002361 264.5555  95.5335 14.98349499 69799,6950.133,96.106,573.639,570.357,0.0
